start=new Date('2023-04-10T00:00:00.000Z').valueOf();
sats=[{"OBJECT_ID":"2021-005BA","APOAPSIS":"547.956","REF_FRAME":"TEME","RCS_SIZE":"LARGE","MEAN_ANOMALY":"272.7813","SITE":"AFETR","PERIAPSIS":"546.305","OBJECT_TYPE":"PAYLOAD","ARG_OF_PERICENTER":"87.3312","TLE_LINE2":"2 47397  53.0528 163.2427 0001192  87.3312 272.7813 15.06427115122509","COUNTRY_CODE":"US","CLASSIFICATION_TYPE":"U","MEAN_MOTION":"15.06427115","TLE_LINE1":"1 47397U 21005BA  23099.54452553  .00018640  00000-0  12660-2 0  9990","EPHEMERIS_TYPE":"0","CENTER_NAME":"EARTH","TIME_SYSTEM":"UTC","ELEMENT_SET_NO":"999","MEAN_MOTION_DOT":"0.00018640","FILE":"3884451","PERIOD":"95.590","MEAN_ELEMENT_THEORY":"SGP4","LAUNCH_DATE":"2021-01-20","OBJECT_NAME":"STARLINK-2119","DECAY_DATE":null,"RA_OF_ASC_NODE":"163.2427","EPOCH":"2023-04-09T13:04:07.005792","SEMIMAJOR_AXIS":"6925.265","BSTAR":"0.00126600000000","ECCENTRICITY":"0.00011920","MEAN_MOTION_DDOT":"0.0000000000000","INCLINATION":"53.0528","GP_ID":"229781801","REV_AT_EPOCH":"12250","NORAD_CAT_ID":"47397"},{"REV_AT_EPOCH":"12291","GP_ID":"229773142","NORAD_CAT_ID":"47398","ECCENTRICITY":"0.00014080","INCLINATION":"53.0513","MEAN_MOTION_DDOT":"0.0000000000000","BSTAR":"0.00090101000000","RA_OF_ASC_NODE":"133.3587","EPOCH":"2023-04-09T12:25:37.651296","SEMIMAJOR_AXIS":"6925.181","OBJECT_NAME":"STARLINK-2120","LAUNCH_DATE":"2021-01-20","DECAY_DATE":null,"PERIOD":"95.589","MEAN_ELEMENT_THEORY":"SGP4","TIME_SYSTEM":"UTC","ELEMENT_SET_NO":"999","FILE":"3884332","MEAN_MOTION_DOT":"0.00013184","CENTER_NAME":"EARTH","EPHEMERIS_TYPE":"0","MEAN_MOTION":"15.06454791","TLE_LINE1":"1 47398U 21005BB  23099.51779689  .00013184  00000-0  90101-3 0  9995","TLE_LINE2":"2 47398  53.0513 133.3587 0001408  77.4652 282.6494 15.06454791122916","CLASSIFICATION_TYPE":"U","COUNTRY_CODE":"US","OBJECT_TYPE":"PAYLOAD","PERIAPSIS":"546.071","ARG_OF_PERICENTER":"77.4652","SITE":"AFETR","RCS_SIZE":"LARGE","MEAN_ANOMALY":"282.6494","OBJECT_ID":"2021-005BB","APOAPSIS":"548.021","REF_FRAME":"TEME"},{"TLE_LINE2":"2 47399  53.0536 142.2502 0001288  96.2963 263.8173 15.06409148122818","COUNTRY_CODE":"US","CLASSIFICATION_TYPE":"U","MEAN_MOTION":"15.06409148","TLE_LINE1":"1 47399U 21005BC  23099.81915150  .00002621  00000-0  19473-3 0  9991","EPHEMERIS_TYPE":"0","CENTER_NAME":"EARTH","OBJECT_ID":"2021-005BC","APOAPSIS":"548.078","REF_FRAME":"TEME","RCS_SIZE":"LARGE","MEAN_ANOMALY":"263.8173","SITE":"AFETR","PERIAPSIS":"546.294","OBJECT_TYPE":"PAYLOAD","ARG_OF_PERICENTER":"96.2963","BSTAR":"0.00019473000000","ECCENTRICITY":"0.00012880","MEAN_MOTION_DDOT":"0.0000000000000","INCLINATION":"53.0536","REV_AT_EPOCH":"12281","GP_ID":"229781824","NORAD_CAT_ID":"47399","TIME_SYSTEM":"UTC","ELEMENT_SET_NO":"999","FILE":"3884456","MEAN_MOTION_DOT":"0.00002621","PERIOD":"95.592","MEAN_ELEMENT_THEORY":"SGP4","LAUNCH_DATE":"2021-01-20","OBJECT_NAME":"STARLINK-2121","DECAY_DATE":null,"RA_OF_ASC_NODE":"142.2502","EPOCH":"2023-04-09T19:39:34.689600","SEMIMAJOR_AXIS":"6925.321"},{"NORAD_CAT_ID":"47400","REV_AT_EPOCH":"12309","GP_ID":"229807619","MEAN_MOTION_DDOT":"0.0000000000000","INCLINATION":"53.0509","ECCENTRICITY":"0.00012220","BSTAR":"0.00026690000000","EPOCH":"2023-04-09T18:43:50.108448","SEMIMAJOR_AXIS":"6925.380","RA_OF_ASC_NODE":"122.1884","DECAY_DATE":null,"OBJECT_NAME":"STARLINK-2122","LAUNCH_DATE":"2021-01-20","MEAN_ELEMENT_THEORY":"SGP4","PERIOD":"95.593","FILE":"3884641","MEAN_MOTION_DOT":"0.00003695","TIME_SYSTEM":"UTC","ELEMENT_SET_NO":"999","CENTER_NAME":"EARTH","EPHEMERIS_TYPE":"0","TLE_LINE1":"1 47400U 21005BD  23099.78044107  .00003695  00000-0  26690-3 0  9996","MEAN_MOTION":"15.06389658","CLASSIFICATION_TYPE":"U","COUNTRY_CODE":"US","TLE_LINE2":"2 47400  53.0509 122.1884 0001222  86.9602 273.1527 15.06389658123096","ARG_OF_PERICENTER":"86.9602","PERIAPSIS":"546.399","OBJECT_TYPE":"PAYLOAD","SITE":"AFETR","RCS_SIZE":"LARGE","MEAN_ANOMALY":"273.1527","OBJECT_ID":"2021-005BD","APOAPSIS":"548.092","REF_FRAME":"TEME"},{"MEAN_ANOMALY":"262.0485","RCS_SIZE":"LARGE","REF_FRAME":"TEME","OBJECT_ID":"2021-005BE","APOAPSIS":"548.087","ARG_OF_PERICENTER":"98.0648","OBJECT_TYPE":"PAYLOAD","PERIAPSIS":"546.325","SITE":"AFETR","TLE_LINE1":"1 47401U 21005BE  23099.79794320 -.00000279  00000-0  14375-6 0  9993","MEAN_MOTION":"15.06402559","COUNTRY_CODE":"US","CLASSIFICATION_TYPE":"U","TLE_LINE2":"2 47401  53.0517 132.1006 0001272  98.0648 262.0485 15.06402559122963","CENTER_NAME":"EARTH","EPHEMERIS_TYPE":"0","MEAN_ELEMENT_THEORY":"SGP4","PERIOD":"95.592","MEAN_MOTION_DOT":"-0.00000279","FILE":"3884641","ELEMENT_SET_NO":"999","TIME_SYSTEM":"UTC","SEMIMAJOR_AXIS":"6925.341","EPOCH":"2023-04-09T19:09:02.292480","RA_OF_ASC_NODE":"132.1006","DECAY_DATE":null,"LAUNCH_DATE":"2021-01-20","OBJECT_NAME":"STARLINK-2123","BSTAR":"0.00000014375000","NORAD_CAT_ID":"47401","REV_AT_EPOCH":"12296","GP_ID":"229807634","INCLINATION":"53.0517","MEAN_MOTION_DDOT":"0.0000000000000","ECCENTRICITY":"0.00012720"},{"ECCENTRICITY":"0.00017140","MEAN_MOTION_DDOT":"0.0000000000000","INCLINATION":"53.0510","GP_ID":"229782277","REV_AT_EPOCH":"12357","NORAD_CAT_ID":"47402","BSTAR":"0.00031369000000","LAUNCH_DATE":"2021-01-20","OBJECT_NAME":"STARLINK-2124","DECAY_DATE":null,"RA_OF_ASC_NODE":"132.0214","SEMIMAJOR_AXIS":"6925.310","EPOCH":"2023-04-09T19:35:33.485856","ELEMENT_SET_NO":"999","TIME_SYSTEM":"UTC","MEAN_MOTION_DOT":"0.00004395","FILE":"3884456","PERIOD":"95.591","MEAN_ELEMENT_THEORY":"SGP4","EPHEMERIS_TYPE":"0","CENTER_NAME":"EARTH","TLE_LINE2":"2 47402  53.0510 132.0214 0001714  63.4468 296.6697 15.06412548123579","COUNTRY_CODE":"US","CLASSIFICATION_TYPE":"U","MEAN_MOTION":"15.06412548","TLE_LINE1":"1 47402U 21005BF  23099.81635979  .00004395  00000-0  31369-3 0  9992","SITE":"AFETR","OBJECT_TYPE":"PAYLOAD","PERIAPSIS":"545.988","ARG_OF_PERICENTER":"63.4468","REF_FRAME":"TEME","OBJECT_ID":"2021-005BF","APOAPSIS":"548.362","MEAN_ANOMALY":"296.6697","RCS_SIZE":"LARGE"},{"TLE_LINE2":"2 47403  53.0531 131.9876 0001548  68.5059 291.6095 15.06414784123573","COUNTRY_CODE":"US","CLASSIFICATION_TYPE":"U","MEAN_MOTION":"15.06414784","TLE_LINE1":"1 47403U 21005BG  23099.82373472  .00006214  00000-0  43555-3 0  9993","EPHEMERIS_TYPE":"0","CENTER_NAME":"EARTH","OBJECT_ID":"2021-005BG","APOAPSIS":"548.240","REF_FRAME":"TEME","RCS_SIZE":"LARGE","MEAN_ANOMALY":"291.6095","SITE":"AFETR","PERIAPSIS":"546.096","OBJECT_TYPE":"PAYLOAD","ARG_OF_PERICENTER":"68.5059","BSTAR":"0.00043555000000","ECCENTRICITY":"0.00015480","INCLINATION":"53.0531","MEAN_MOTION_DDOT":"0.0000000000000","GP_ID":"229782274","REV_AT_EPOCH":"12357","NORAD_CAT_ID":"47403","TIME_SYSTEM":"UTC","ELEMENT_SET_NO":"999","MEAN_MOTION_DOT":"0.00006214","FILE":"3884456","PERIOD":"95.591","MEAN_ELEMENT_THEORY":"SGP4","LAUNCH_DATE":"2021-01-20","OBJECT_NAME":"STARLINK-2127","DECAY_DATE":null,"RA_OF_ASC_NODE":"131.9876","EPOCH":"2023-04-09T19:46:10.679808","SEMIMAJOR_AXIS":"6925.303"},{"BSTAR":"0.00012631000000","MEAN_MOTION_DDOT":"0.0000000000000","INCLINATION":"53.0521","ECCENTRICITY":"0.00017050","NORAD_CAT_ID":"47404","REV_AT_EPOCH":"12357","GP_ID":"229782271","FILE":"3884456","MEAN_MOTION_DOT":"0.00001600","TIME_SYSTEM":"UTC","ELEMENT_SET_NO":"999","MEAN_ELEMENT_THEORY":"SGP4","PERIOD":"95.592","DECAY_DATE":null,"OBJECT_NAME":"STARLINK-2128","LAUNCH_DATE":"2021-01-20","EPOCH":"2023-04-09T19:40:52.014144","SEMIMAJOR_AXIS":"6925.344","RA_OF_ASC_NODE":"132.0017","COUNTRY_CODE":"US","CLASSIFICATION_TYPE":"U","TLE_LINE2":"2 47404  53.0521 132.0017 0001705  85.4356 274.6827 15.06401546123571","TLE_LINE1":"1 47404U 21005BH  23099.82004646  .00001600  00000-0  12631-3 0  9993","MEAN_MOTION":"15.06401546","EPHEMERIS_TYPE":"0","CENTER_NAME":"EARTH","APOAPSIS":"548.390","OBJECT_ID":"2021-005BH","REF_FRAME":"TEME","RCS_SIZE":"LARGE","MEAN_ANOMALY":"274.6827","SITE":"AFETR","ARG_OF_PERICENTER":"85.4356","OBJECT_TYPE":"PAYLOAD","PERIAPSIS":"546.028"},{"TLE_LINE2":"2 47405  53.0518 161.7821 0001870  99.5830 260.5370 15.06404546122542","COUNTRY_CODE":"US","CLASSIFICATION_TYPE":"U","MEAN_MOTION":"15.06404546","TLE_LINE1":"1 47405U 21005BJ  23099.86889758  .00005026  00000-0  35601-3 0  9991","EPHEMERIS_TYPE":"0","CENTER_NAME":"EARTH","APOAPSIS":"548.495","OBJECT_ID":"2021-005BJ","REF_FRAME":"TEME","RCS_SIZE":"LARGE","MEAN_ANOMALY":"260.5370","SITE":"AFETR","PERIAPSIS":"545.905","OBJECT_TYPE":"PAYLOAD","ARG_OF_PERICENTER":"99.5830","BSTAR":"0.00035601000000","ECCENTRICITY":"0.00018700","MEAN_MOTION_DDOT":"0.0000000000000","INCLINATION":"53.0518","REV_AT_EPOCH":"12254","GP_ID":"229782269","NORAD_CAT_ID":"47405","TIME_SYSTEM":"UTC","ELEMENT_SET_NO":"999","FILE":"3884456","MEAN_MOTION_DOT":"0.00005026","PERIOD":"95.592","MEAN_ELEMENT_THEORY":"SGP4","OBJECT_NAME":"STARLINK-2130","LAUNCH_DATE":"2021-01-20","DECAY_DATE":null,"RA_OF_ASC_NODE":"161.7821","EPOCH":"2023-04-09T20:51:12.750912","SEMIMAJOR_AXIS":"6925.335"},{"BSTAR":"0.00087310000000","GP_ID":"229749476","REV_AT_EPOCH":"12351","NORAD_CAT_ID":"47406","ECCENTRICITY":"0.00012670","INCLINATION":"53.0524","MEAN_MOTION_DDOT":"0.0000000000000","PERIOD":"95.591","MEAN_ELEMENT_THEORY":"SGP4","ELEMENT_SET_NO":"999","TIME_SYSTEM":"UTC","MEAN_MOTION_DOT":"0.00012754","FILE":"3884190","RA_OF_ASC_NODE":"134.0339","SEMIMAJOR_AXIS":"6925.292","EPOCH":"2023-04-09T08:48:00.539424","LAUNCH_DATE":"2021-01-20","OBJECT_NAME":"STARLINK-2133","DECAY_DATE":null,"MEAN_MOTION":"15.06418366","TLE_LINE1":"1 47406U 21005BK  23099.36667291  .00012754  00000-0  87310-3 0  9993","TLE_LINE2":"2 47406  53.0524 134.0339 0001267  91.7914 268.3220 15.06418366123517","CLASSIFICATION_TYPE":"U","COUNTRY_CODE":"US","CENTER_NAME":"EARTH","EPHEMERIS_TYPE":"0","MEAN_ANOMALY":"268.3220","RCS_SIZE":"LARGE","REF_FRAME":"TEME","OBJECT_ID":"2021-005BK","APOAPSIS":"548.035","OBJECT_TYPE":"PAYLOAD","PERIAPSIS":"546.280","ARG_OF_PERICENTER":"91.7914","SITE":"AFETR"}];
